[{"OBJECT_NAME":"OBJECT A","OBJECT_ID":"2025-013A","EPOCH":"2026-03-09T23:29:31.895232","MEAN_MOTION":15.29260221,"ECCENTRICITY":0.0010321,"INCLINATION":97.6364,"RA_OF_ASC_NODE":244.5149,"ARG_OF_PERICENTER":282.3775,"MEAN_ANOMALY":77.6309,"EPHEMERIS_TYPE":0,"CLASSIFICATION_TYPE":"U","NORAD_CAT_ID":62729,"ELEMENT_SET_NO":999,"REV_AT_EPOCH":6276,"BSTAR":0.0013206527,"MEAN_MOTION_DOT":0.00037616,"MEAN_MOTION_DDOT":0},{"OBJECT_NAME":"STARLINK-33596","OBJECT_ID":"2025-015A","EPOCH":"2026-03-09T22:15:37.905120","MEAN_MOTION":15.30212806,"ECCENTRICITY":9.92e-5,"INCLINATION":53.1572,"RA_OF_ASC_NODE":321.6318,"ARG_OF_PERICENTER":112.1203,"MEAN_ANOMALY":247.9903,"EPHEMERIS_TYPE":0,"CLASSIFICATION_TYPE":"U","NORAD_CAT_ID":62758,"ELEMENT_SET_NO":999,"REV_AT_EPOCH":6444,"BSTAR":0.0010771292,"MEAN_MOTION_DOT":0.00031691,"MEAN_MOTION_DDOT":0}]
